{"fetched_at":"2026-03-29T02:12:04Z","count":15717,"tles":[{"name":"PIESAT B","line1":"1 56154U 23047B   26086.54695891  .00003723  00000+0  20706-3 0  9998","line2":"2 56154  97.5018 274.8652 0001475 107.8327 252.3065 15.14285030165444","category":"Other"}]}