{
  "norad_id": 56154,
  "name": "PIESAT B",
  "history": [
    {
      "epoch": "2026-03-27T13:07:37.249824",
      "apogee_km": 524.1679416064726,
      "perigee_km": 522.1320619409489,
      "latitude_deg": 20.78512344395194,
      "longitude_deg": 111.90805535996333,
      "semi_major_axis_km": 6901.2870017737105,
      "eccentricity": 0.0001475,
      "inclination_deg": 97.5018,
      "raan_deg": 274.8652,
      "arg_perigee_deg": 107.8327,
      "mean_anomaly_deg": 252.3065,
      "mean_motion_rev_day": 15.1428503
    }
  ]
}